0 SL-8 R/B
1 25569U 98072C   13282.85894226  .00000059  00000-0  46704-4 0  5279
2 25569 082.9438 244.8181 0019468 295.8740 122.1968 13.73830002743633
0 SL-8 R/B
1 25569U 98072C   13287.53220132  .00000037  00000-0  23987-4 0  5294
2 25569 082.9448 241.3631 0019429 281.9457 196.0641 13.73830449744278
0 SL-8 R/B
1 25569U 98072C   13289.84999976  .00000083  00000-0  72602-4 0  5300
2 25569 082.9453 239.6498 0019444 274.9374 139.9644 13.73830631744599
0 SL-8 R/B
1 25569U 98072C   13292.18662139  .00000092  00000-0  82712-4 0  5313
2 25569 082.9454 237.9229 0019456 267.9565 176.8808 13.73830672744913
0 SL-8 R/B
1 25569U 98072C   13294.80318922  .00000094  00000-0  83953-4 0  5323
2 25569 082.9454 235.9895 0019529 260.1999 158.3484 13.73831195745273
